IRIDIUM 39              
1 25042U 97069D   25360.89036524  .00000900  00000+0  22906-3 0  9997
2 25042  86.3929 128.5632 0018483  29.0095 331.2132 14.49526323476874
IRIDIUM 38              
1 25043U 97069E   25360.96129230  .00000608  00000+0  19351-3 0  9998
2 25043  86.3979 152.1278 0002719 137.3173 222.8237 14.38327899473664
IRIDIUM 42              
1 25077U 97077A   25360.85679038  .00000498  00000+0  16280-3 0  9993
2 25077  86.3984 158.5768 0001890 114.9376 245.2017 14.36544211468853
IRIDIUM 44              
1 25078U 97077B   25360.84653413  .00000469  00000+0  14140-3 0  9993
2 25078  86.3978 140.0026 0003876 103.1049 257.0583 14.40443592471435
IRIDIUM 45              
1 25104U 97082A   25360.91759355  .00039780  00000+0  11054-2 0  9997
2 25104  86.3548 313.6871 0094596 327.1313  32.4074 15.32222767481448
IRIDIUM 24              
1 25105U 97082B   25360.91622212  .00000569  00000+0  16607-3 0  9992
2 25105  86.3908 358.5357 0012260 151.2555 208.9323 14.42341047470996
IRIDIUM 51              
1 25262U 98018A   25360.91847119  .00126788  00000+0  12098-2 0  9992
2 25262  86.3725 318.9480 0046086 212.0623 147.7841 15.64979197476864
IRIDIUM 57              
1 25273U 98019B   25360.91701484  .00000408  00000+0  13355-3 0  9997
2 25273  86.3947  64.4432 0002243  97.5895 262.5556 14.36061821452447
